KUIPER-00079            
1 64826U 25151L   25292.05329076  .00003186  00000+0  44646-3 0  9996
2 64826  51.8974 206.5900 0012785 127.6883 232.5241 14.79939746 15534
KUIPER-00080            
1 64827U 25151M   25292.04859048  .00010232  00000+0  13691-2 0  9998
2 64827  51.8985 206.9086 0005788 144.0323 216.1030 14.79928125 14333
KUIPER-00082            
1 64828U 25151N   25292.33336806 -.00590961  00000+0 -54855-1 0  9993
2 64828  51.8939 193.7825 0005125 154.4019  58.2822 14.96345302  1855
KUIPER-00083            
1 64829U 25151P   25292.02029149  .00006786  00000+0  91728-3 0  9996
2 64829  51.9009 202.0429 0011074 133.3134 226.8754 14.79949750 15583
KUIPER-00084            
1 64830U 25151Q   25292.07708823  .00010536  00000+0  14098-2 0  9998
2 64830  51.8990 211.7778 0012134 107.5921 252.6368 14.79867673 14267
KUIPER-00085            
1 64831U 25151R   25292.33336806 -.00412931  00000+0 -38767-1 0  9991
2 64831  51.8988 193.9056 0008813 130.6029 255.2173 14.95794803  3982
KUIPER-00086            
1 64832U 25151S   25292.05135309  .00005433  00000+0  74062-3 0  9999
2 64832  51.9012 204.4025 0011756 129.3222 230.8784 14.79936504 14365
KUIPER-00087            
1 64833U 25151T   25292.33336806 -.00635333  00000+0 -32463-1 0  9993
2 64833  51.8834 189.9451 0005511 161.3161 127.5449 15.18728174  1482
